#aV2024 12 11  0  0  0.00000000     288 DD+AD WGS84 FIT  NGA
## 2344 259200.00000000   300.00000000 60655 0.0000000000000
+   31     2  3  4  5  6  7  8  9 10 11 12 13 14 15 16 17 18
+         19 20 21 22 23 24 25 26 27 28 29 30 31 32  0  0  0
+          0  0  0  0  0  0  0  0  0  0  0  0  0  0  0  0  0
+          0  0  0  0  0  0  0  0  0  0  0  0  0  0  0  0  0
+          0  0  0  0  0  0  0  0  0  0  0  0  0  0  0  0  0
++         2  2  2  2  2  2  2  2  2  2  2  2  2  2  2  2  2
++         2  2  2  2  2  2  2  2  2  2  2  2  2  2  0  0  0
++         0  0  0  0  0  0  0  0  0  0  0  0  0  0  0  0  0
++         0  0  0  0  0  0  0  0  0  0  0  0  0  0  0  0  0
++         0  0  0  0  0  0  0  0  0  0  0  0  0  0  0  0  0
%c cc cc ccc ccc cccc cccc cccc cccc ccccc ccccc ccccc ccccc
%c cc cc ccc ccc cccc cccc cccc cccc ccccc ccccc ccccc ccccc
%f  0.0000000  0.000000000  0.00000000000  0.000000000000000
%f  0.0000000  0.000000000  0.00000000000  0.000000000000000
%i    0    0    0    0      0      0      0      0         0
%i    0    0    0    0      0      0      0      0         0
/*      NGA, ST. LOUIS,MO.                                  
/*   EPHEMERIS COMPUTED FROM 2 DAYS OF DATA                 
/*   EPOCHA v9 SMOOTHER                                     
/*   G2296 IERS2010 SATIGS SATAPC                           
*  2024 12 11 20  5  0.00000000
P  2   8747.908155 -19187.718131 -15445.026407   -294.272855                    
V  2  18140.972147 -10029.546113  22433.587800      0.088271                    
P  3  -3905.981917 -17421.397293 -19865.882229    622.230504                    
V  3  21812.432435  11746.039272 -14604.334311      0.090274                    
P  4    520.183573 -26468.224941    444.496462    494.261300                    
V  4   2790.454326   -460.220753 -31972.476309      0.062042                    
P  5 -11989.949499  10094.113360  21277.539111   -195.715196                    
V  5 -24136.137922 -12932.791153  -7341.883270     -0.011366                    
P  6 -23156.206912   3472.424368 -12578.471940    -36.745565                    
V  6  13226.201569  -9130.380575 -26597.225505     -0.289019                    
P  7  -8307.630406 -13334.304253  21955.408152    -15.965522                    
V  7  23110.107416 -13281.017259    246.836218      0.013800                    
P  8   6786.858654 -22970.381732  10850.241488    436.096972                    
V  8   3691.432328  13999.456999  27462.345069      0.091269                    
P  9  -6823.158010 -24069.920993   8721.797664    482.851566                    
V  9   2341.718383 -11299.553617 -29111.608170      0.162911                    
P 10  24193.043621  10062.361538  -5116.216514   -230.528262                    
V 10   4974.675177   4806.945781  31239.897066     -0.152634                    
P 11 -23565.575983  12175.891709   -165.361177   -752.511611                    
V 11  -1028.330612  -2528.789330 -31905.047930     -0.004620                    
P 12  -1204.186042  16728.638307 -20894.527079   -557.749246                    
V 12 -21951.727471 -13698.753307  -9792.000553     -0.023581                    
P 13 -13170.617014  16441.694194  15794.508097    689.583082                    
V 13    961.056602 -20621.778295  22176.060668      0.014548                    
P 14 -23434.054958 -12658.016836  -1683.873447    558.180642                    
V 14   -266.328413  -3795.866654  31145.848369      0.076887                    
P 15  -3401.786614  24117.977290   9893.996662    238.406895                    
V 15  -5518.428863 -12680.371212  27713.225743      0.045582                    
P 16  17263.160020  -4572.277734  19449.923456   -105.758544                    
V 16  20198.992942  15315.851429 -13633.632825      0.096110                    
P 17 -13040.435734 -11257.482948 -19744.362446    523.176155                    
V 17   2702.572047 -25922.183529  12924.753734     -0.158581                    
P 18  10274.312535  11239.544167  21812.892501   -660.403178                    
V 18 -23966.259271  13602.207576   4065.685921      0.003712                    
P 19 -15189.246753   -522.620836 -21907.716844    572.867796                    
V 19   2441.601689 -27379.964995  -1470.768544      0.042359                    
P 20 -21529.768322   3679.323774  15098.303277    367.975581                    
V 20 -17269.820512  -8428.142835 -22833.164092     -0.003194                    
P 21  13920.030222 -19068.914601 -10595.250791     95.312640                    
V 21  13702.101499  -5630.235896  28237.155785      0.028349                    
P 22 -23146.996251  -8202.934366  -9321.385641    -85.699779                    
V 22  -8582.994131  -9526.327014  28815.144811     -0.024958                    
P 23  19161.604362  16612.253861   8321.652963    381.529716                    
V 23 -10026.438109  -3363.470764  29721.850315      0.077427                    
P 24  -9559.565121  20207.430761 -14499.379114   -474.234114                    
V 24 -16125.780067   8186.288535  23180.218295      0.029947                    
P 25  12962.631648  18709.343285 -14260.884443    498.203000                    
V 25 -16315.531489  -6491.892275 -23685.997576     -0.004081                    
P 26  24040.601045   1770.200814  11394.351812     -5.278356                    
V 26  12068.424864   8841.798864 -26031.076169     -0.139623                    
P 27  12658.670458 -13828.937837  18335.810379    -34.262169                    
V 27   2161.422337  24042.896989  16796.599784      0.003130                    
P 28  22329.850159  -2231.343127 -14227.023578   -505.359707                    
V 28 -14170.210806  11360.885967 -24043.811402     -0.108276                    
P 29   4470.802396  24498.413203   9015.670731   -556.751443                    
V 29  -3262.931887  11332.955763 -29155.930922      0.031055                    
P 30 -18875.973450  -4645.115658  18363.099440   -263.392274                    
V 30  18991.125518 -13093.078816  16073.172526      0.080917                    
P 31  24574.278898  -9294.232043  -5304.935254   -220.160688                    
V 31  -4304.138896   5366.899910 -30416.775764      0.007213                    
P 32  14588.187514   7099.392769 -20844.640128   -560.571577                    
V 32   -304.679620  26940.627242   8666.337216      0.059986                    
EOF
